CCSDS_OMM_VERS = 2.0
CREATION_DATE  = 
ORIGINATOR     = 

OBJECT_NAME    = SL-4 R/B
OBJECT_ID      = 2014-021B
CENTER_NAME    = EARTH
REF_FRAME      = TEME
TIME_SYSTEM    = UTC
MEAN_ELEMENT_THEORY = SGP/SGP4

EPOCH          = 2026-02-03T11:08:13.996896
MEAN_MOTION    = 15.38093629
ECCENTRICITY   = .0099029
INCLINATION    = 51.6069
RA_OF_ASC_NODE = 144.1009
ARG_OF_PERICENTER = 338.2421
MEAN_ANOMALY   = 21.4370

EPHEMERIS_TYPE = 0
CLASSIFICATION_TYPE = U
NORAD_CAT_ID   = 39679
ELEMENT_SET_NO = 999
REV_AT_EPOCH   = 65100
BSTAR          = .27979E-3
MEAN_MOTION_DOT = .12179E-3
MEAN_MOTION_DDOT = 0

CCSDS_OMM_VERS = 2.0
CREATION_DATE  = 
ORIGINATOR     = 

OBJECT_NAME    = ALOS-2
OBJECT_ID      = 2014-029A
CENTER_NAME    = EARTH
REF_FRAME      = TEME
TIME_SYSTEM    = UTC
MEAN_ELEMENT_THEORY = SGP/SGP4

EPOCH          = 2026-02-03T13:32:36.057408
MEAN_MOTION    = 14.79473270
ECCENTRICITY   = .0001418
INCLINATION    = 97.9226
RA_OF_ASC_NODE = 133.6528
ARG_OF_PERICENTER = 98.6105
MEAN_ANOMALY   = 261.5267

EPHEMERIS_TYPE = 0
CLASSIFICATION_TYPE = U
NORAD_CAT_ID   = 39766
ELEMENT_SET_NO = 999
REV_AT_EPOCH   = 63182
BSTAR          = .93562E-4
MEAN_MOTION_DOT = .647E-5
MEAN_MOTION_DDOT = 0

CCSDS_OMM_VERS = 2.0
CREATION_DATE  = 
ORIGINATOR     = 

OBJECT_NAME    = YAOGAN-29
OBJECT_ID      = 2015-069A
CENTER_NAME    = EARTH
REF_FRAME      = TEME
TIME_SYSTEM    = UTC
MEAN_ELEMENT_THEORY = SGP/SGP4

EPOCH          = 2026-02-03T12:26:08.986848
MEAN_MOTION    = 14.82957518
ECCENTRICITY   = .0002927
INCLINATION    = 98.0175
RA_OF_ASC_NODE = 62.8510
ARG_OF_PERICENTER = 92.9029
MEAN_ANOMALY   = 267.2519

EPHEMERIS_TYPE = 0
CLASSIFICATION_TYPE = U
NORAD_CAT_ID   = 41038
ELEMENT_SET_NO = 999
REV_AT_EPOCH   = 55081
BSTAR          = .13476E-3
MEAN_MOTION_DOT = .104E-4
MEAN_MOTION_DDOT = 0

CCSDS_OMM_VERS = 2.0
CREATION_DATE  = 
ORIGINATOR     = 

OBJECT_NAME    = ASTRO-H (HITOMI)
OBJECT_ID      = 2016-012A
CENTER_NAME    = EARTH
REF_FRAME      = TEME
TIME_SYSTEM    = UTC
MEAN_ELEMENT_THEORY = SGP/SGP4

EPOCH          = 2026-02-02T20:39:56.506752
MEAN_MOTION    = 15.09743482
ECCENTRICITY   = .00099002
INCLINATION    = 30.9977
RA_OF_ASC_NODE = 221.2612
ARG_OF_PERICENTER = 342.4480
MEAN_ANOMALY   = 17.5815

EPHEMERIS_TYPE = 0
CLASSIFICATION_TYPE = U
NORAD_CAT_ID   = 41337
ELEMENT_SET_NO = 999
REV_AT_EPOCH   = 54696
BSTAR          = .19033784E-3
MEAN_MOTION_DOT = .3244E-4
MEAN_MOTION_DDOT = 0

CCSDS_OMM_VERS = 2.0
CREATION_DATE  = 
ORIGINATOR     = 

OBJECT_NAME    = HXMT (HUIYAN)
OBJECT_ID      = 2017-034A
CENTER_NAME    = EARTH
REF_FRAME      = TEME
TIME_SYSTEM    = UTC
MEAN_ELEMENT_THEORY = SGP/SGP4

EPOCH          = 2026-02-03T13:04:11.973792
MEAN_MOTION    = 15.17001269
ECCENTRICITY   = .0031478
INCLINATION    = 43.0126
RA_OF_ASC_NODE = 206.4390
ARG_OF_PERICENTER = 16.4033
MEAN_ANOMALY   = 343.7827

EPHEMERIS_TYPE = 0
CLASSIFICATION_TYPE = U
NORAD_CAT_ID   = 42758
ELEMENT_SET_NO = 999
REV_AT_EPOCH   = 47735
BSTAR          = .2971E-3
MEAN_MOTION_DOT = .5814E-4
MEAN_MOTION_DDOT = 0

CCSDS_OMM_VERS = 2.0
CREATION_DATE  = 
ORIGINATOR     = 

OBJECT_NAME    = CZ-2C R/B
OBJECT_ID      = 2018-054D
CENTER_NAME    = EARTH
REF_FRAME      = TEME
TIME_SYSTEM    = UTC
MEAN_ELEMENT_THEORY = SGP/SGP4

EPOCH          = 2026-02-03T12:01:11.208288
MEAN_MOTION    = 15.92667316
ECCENTRICITY   = .001362
INCLINATION    = 35.1291
RA_OF_ASC_NODE = 179.0721
ARG_OF_PERICENTER = 331.2393
MEAN_ANOMALY   = 28.7594

EPHEMERIS_TYPE = 0
CLASSIFICATION_TYPE = U
NORAD_CAT_ID   = 43521
ELEMENT_SET_NO = 999
REV_AT_EPOCH   = 42341
BSTAR          = .77031E-3
MEAN_MOTION_DOT = .279251E-2
MEAN_MOTION_DDOT = .29957E-4

CCSDS_OMM_VERS = 2.0
CREATION_DATE  = 
ORIGINATOR     = 

OBJECT_NAME    = SAOCOM 1A
OBJECT_ID      = 2018-076A
CENTER_NAME    = EARTH
REF_FRAME      = TEME
TIME_SYSTEM    = UTC
MEAN_ELEMENT_THEORY = SGP/SGP4

EPOCH          = 2026-02-03T12:46:59.144736
MEAN_MOTION    = 14.82149807
ECCENTRICITY   = .0001348
INCLINATION    = 97.8858
RA_OF_ASC_NODE = 223.1899
ARG_OF_PERICENTER = 86.6997
MEAN_ANOMALY   = 273.4371

EPHEMERIS_TYPE = 0
CLASSIFICATION_TYPE = U
NORAD_CAT_ID   = 43641
ELEMENT_SET_NO = 999
REV_AT_EPOCH   = 39630
BSTAR          = .50036E-4
MEAN_MOTION_DOT = .346E-5
MEAN_MOTION_DDOT = 0

CCSDS_OMM_VERS = 2.0
CREATION_DATE  = 
ORIGINATOR     = 

OBJECT_NAME    = H-2A R/B
OBJECT_ID      = 2018-084L
CENTER_NAME    = EARTH
REF_FRAME      = TEME
TIME_SYSTEM    = UTC
MEAN_ELEMENT_THEORY = SGP/SGP4

EPOCH          = 2026-02-03T12:04:48.766080
MEAN_MOTION    = 15.39816309
ECCENTRICITY   = .0026233
INCLINATION    = 98.8753
RA_OF_ASC_NODE = 244.6240
ARG_OF_PERICENTER = 140.4744
MEAN_ANOMALY   = 219.8417

EPHEMERIS_TYPE = 0
CLASSIFICATION_TYPE = U
NORAD_CAT_ID   = 43682
ELEMENT_SET_NO = 999
REV_AT_EPOCH   = 40051
BSTAR          = .52299E-3
MEAN_MOTION_DOT = .20913E-3
MEAN_MOTION_DDOT = 0

CCSDS_OMM_VERS = 2.0
CREATION_DATE  = 
ORIGINATOR     = 

OBJECT_NAME    = SAOCOM 1B
OBJECT_ID      = 2020-059A
CENTER_NAME    = EARTH
REF_FRAME      = TEME
TIME_SYSTEM    = UTC
MEAN_ELEMENT_THEORY = SGP/SGP4

EPOCH          = 2026-02-03T11:54:47.081664
MEAN_MOTION    = 14.82158694
ECCENTRICITY   = .0001359
INCLINATION    = 97.8856
RA_OF_ASC_NODE = 222.2527
ARG_OF_PERICENTER = 84.4515
MEAN_ANOMALY   = 275.6853

EPHEMERIS_TYPE = 0
CLASSIFICATION_TYPE = U
NORAD_CAT_ID   = 46265
ELEMENT_SET_NO = 999
REV_AT_EPOCH   = 29368
BSTAR          = .95232E-4
MEAN_MOTION_DOT = .706E-5
MEAN_MOTION_DDOT = 0

CCSDS_OMM_VERS = 2.0
CREATION_DATE  = 
ORIGINATOR     = 

OBJECT_NAME    = CSS (TIANHE)
OBJECT_ID      = 2021-035A
CENTER_NAME    = EARTH
REF_FRAME      = TEME
TIME_SYSTEM    = UTC
MEAN_ELEMENT_THEORY = SGP/SGP4

EPOCH          = 2026-02-03T11:06:44.051904
MEAN_MOTION    = 15.59141302
ECCENTRICITY   = .0006184
INCLINATION    = 41.4674
RA_OF_ASC_NODE = 56.1782
ARG_OF_PERICENTER = 350.0831
MEAN_ANOMALY   = 9.9884

EPHEMERIS_TYPE = 0
CLASSIFICATION_TYPE = U
NORAD_CAT_ID   = 48274
ELEMENT_SET_NO = 999
REV_AT_EPOCH   = 27226
BSTAR          = .21895E-3
MEAN_MOTION_DOT = .17341E-3
MEAN_MOTION_DDOT = 0

CCSDS_OMM_VERS = 2.0
CREATION_DATE  = 
ORIGINATOR     = 

OBJECT_NAME    = COSMOS 2550
OBJECT_ID      = 2021-056A
CENTER_NAME    = EARTH
REF_FRAME      = TEME
TIME_SYSTEM    = UTC
MEAN_ELEMENT_THEORY = SGP/SGP4

EPOCH          = 2026-01-26T03:10:39.828288
MEAN_MOTION    = 15.33840202
ECCENTRICITY   = .00083094
INCLINATION    = 67.1441
RA_OF_ASC_NODE = 169.6578
ARG_OF_PERICENTER = 269.8947
MEAN_ANOMALY   = 90.1255

EPHEMERIS_TYPE = 0
CLASSIFICATION_TYPE = U
NORAD_CAT_ID   = 48865
ELEMENT_SET_NO = 999
REV_AT_EPOCH   = 25693
BSTAR          = .322698E-6
MEAN_MOTION_DOT = -.181E-5
MEAN_MOTION_DDOT = 0

CCSDS_OMM_VERS = 2.0
CREATION_DATE  = 
ORIGINATOR     = 

OBJECT_NAME    = CZ-2C R/B
OBJECT_ID      = 2022-058K
CENTER_NAME    = EARTH
REF_FRAME      = TEME
TIME_SYSTEM    = UTC
MEAN_ELEMENT_THEORY = SGP/SGP4

EPOCH          = 2026-02-03T11:23:15.186912
MEAN_MOTION    = 15.51816738
ECCENTRICITY   = .0042456
INCLINATION    = 50.1897
RA_OF_ASC_NODE = 133.9696
ARG_OF_PERICENTER = 55.7892
MEAN_ANOMALY   = 304.7089

EPHEMERIS_TYPE = 0
CLASSIFICATION_TYPE = U
NORAD_CAT_ID   = 52794
ELEMENT_SET_NO = 999
REV_AT_EPOCH   = 20481
BSTAR          = .44546E-3
MEAN_MOTION_DOT = .27812E-3
MEAN_MOTION_DDOT = 0

