SL-4 R/B                
1 39679U 14021B   26034.46405089  .00012179  00000+0  27979-3 0  9999
2 39679  51.6069 144.1009 0099029 338.2421  21.4370 15.38093629651009
ALOS-2                  
1 39766U 14029A   26034.56430622  .00000647  00000+0  93562-4 0  9995
2 39766  97.9226 133.6528 0001418  98.6105 261.5267 14.79473270631822
YAOGAN-29               
1 41038U 15069A   26034.51815957  .00001040  00000+0  13476-3 0  9991
2 41038  98.0175  62.8510 0002927  92.9029 267.2519 14.82957518550812
ASTRO-H (HITOMI)        
1 41337U 16012A   26033.86107068  .00003244  00000+0  19034-3 0  9990
2 41337  30.9977 221.2612 0009900 342.4480  17.5815 15.09743482546964
HXMT (HUIYAN)           
1 42758U 17034A   26034.54458303  .00005814  00000+0  29710-3 0  9997
2 42758  43.0126 206.4390 0031478  16.4033 343.7827 15.17001269477350
CZ-2C R/B               
1 43521U 18054D   26034.50082417  .00279251  29957-4  77031-3 0  9998
2 43521  35.1291 179.0721 0013620 331.2393  28.7594 15.92667316423416
SAOCOM 1A               
1 43641U 18076A   26034.53262899  .00000346  00000+0  50036-4 0  9999
2 43641  97.8858 223.1899 0001348  86.6997 273.4371 14.82149807396302
H-2A R/B                
1 43682U 18084L   26034.50334220  .00020913  00000+0  52299-3 0  9992
2 43682  98.8753 244.6240 0026233 140.4744 219.8417 15.39816309400514
SAOCOM 1B               
1 46265U 20059A   26034.49637826  .00000706  00000+0  95232-4 0  9996
2 46265  97.8856 222.2527 0001359  84.4515 275.6853 14.82158694293687
CSS (TIANHE)            
1 48274U 21035A   26034.46300986  .00017341  00000+0  21895-3 0  9990
2 48274  41.4674  56.1782 0006184 350.0831   9.9884 15.59141302272269
COSMOS 2550             
1 48865U 21056A   26026.13240542 -.00000181  00000+0  32270-6 0  9992
2 48865  67.1441 169.6578 0008309 269.8947  90.1255 15.33840202256938
CZ-2C R/B               
1 52794U 22058K   26034.47448133  .00027812  00000+0  44546-3 0  9998
2 52794  50.1897 133.9696 0042456  55.7892 304.7089 15.51816738204814
